QIANFAN-1               
1 60379U 24140A   25208.93190357  .00000129  00000+0  18138-3 0  9995
2 60379  88.9845 313.5194 0015748 249.3759 110.5704 13.50954055 48747
QIANFAN-2               
1 60380U 24140B   25208.88664741  .00000134  00000+0  18969-3 0  9992
2 60380  88.9832 313.3826 0011838 216.9772 143.0564 13.50960561 48795
QIANFAN-3               
1 60381U 24140C   25209.19107083  .00000134  00000+0  18922-3 0  9998
2 60381  88.9824 313.4940 0012588 230.3685 129.6356 13.50958783 48748
QIANFAN-4               
1 60382U 24140D   25208.87019135  .00000149  00000+0  21278-3 0  9997
2 60382  88.9849 313.3902 0011983 219.9778 140.0491 13.50954153 48820
QIANFAN-5               
1 60383U 24140E   25209.21588285  .00000138  00000+0  19543-3 0  9994
2 60383  88.9824 313.5173 0013542 243.3863 116.5901 13.50957301 48737
QIANFAN-6               
1 60384U 24140F   25209.23634691  .00000136  00000+0  19187-3 0  9992
2 60384  88.9850 313.2248 0011936 225.3820 134.6358 13.50953847 48935
QIANFAN-7               
1 60385U 24140G   25209.21993972  .00000609  00000+0  24168-3 0  9991
2 60385  88.9852 309.8573 0017215 128.9732 231.2999 14.27490754 50774
QIANFAN-8               
1 60386U 24140H   25209.17061594  .00000140  00000+0  19899-3 0  9998
2 60386  88.9852 313.4666 0015290 229.7406 130.2408 13.50957806 48803
